{
  "type": "FeatureCollection",
  "features": [
    {
      "type": "Feature",
      "properties": {
        "norad_id": 24946,
        "name": "IRIDIUM 33",
        "group": "iridium-33-debris",
        "lat": 1.00911851387184,
        "lon": 65.13848360761382,
        "alt_km": 783.4176129337939,
        "timestamp": "2025-12-20T05:41:50.415531+00:00",
        "meta_object_name": "IRIDIUM 33",
        "meta_object_id": "1997-051C",
        "meta_epoch": "2025-12-19T11:17:03.474240",
        "meta_mean_motion": 14.35041894,
        "meta_eccentricity": 0.0007833,
        "meta_inclination": 86.3867,
        "meta_ra_of_asc_node": 65.3967,
        "meta_arg_of_pericenter": 177.5382,
        "meta_mean_anomaly": 182.5855,
        "meta_ephemeris_type": 0,
        "meta_classification_type": "U",
        "meta_norad_cat_id": 24946,
        "meta_element_set_no": 999,
        "meta_rev_at_epoch": 47931,
        "meta_bstar": 8.767e-05,
        "meta_mean_motion_dot": 2.7e-06,
        "meta_mean_motion_ddot": 0,
        "tle_line1": "1 24946U 97051C   25353.47017910  .00000270  00000+0  87670-4 0  9994",
        "tle_line2": "2 24946  86.3867  65.3967 0007833 177.5382 182.5855 14.35041894479312"
      },
      "geometry": {
        "type": "Point",
        "coordinates": [
          65.13848360761382,
          1.00911851387184
        ]
      }
    },
    {
      "type": "Feature",
      "properties": {
        "norad_id": 33773,
        "name": "IRIDIUM 33 DEB",
        "group": "iridium-33-debris",
        "lat": -0.06734739286421297,
        "lon": -122.58352310820405,
        "alt_km": 745.4861796651658,
        "timestamp": "2025-12-20T05:41:50.415576+00:00",
        "meta_object_name": "IRIDIUM 33 DEB",
        "meta_object_id": "1997-051L",
        "meta_epoch": "2025-12-19T22:12:41.387328",
        "meta_mean_motion": 14.43271058,
        "meta_eccentricity": 0.00130701,
        "meta_inclination": 86.4003,
        "meta_ra_of_asc_node": 57.5444,
        "meta_arg_of_pericenter": 125.5672,
        "meta_mean_anomaly": 234.6749,
        "meta_ephemeris_type": 0,
        "meta_classification_type": "U",
        "meta_norad_cat_id": 33773,
        "meta_element_set_no": 999,
        "meta_rev_at_epoch": 88451,
        "meta_bstar": 0.00020534894,
        "meta_mean_motion_dot": 7.12e-06,
        "meta_mean_motion_ddot": 0,
        "tle_line1": "1 33773U 97051L   25353.92547902  .00000712  00000+0  20535-3 0  9998",
        "tle_line2": "2 33773  86.4003  57.5444 0013070 125.5672 234.6749 14.43271058884510"
      },
      "geometry": {
        "type": "Point",
        "coordinates": [
          -122.58352310820405,
          -0.06734739286421297
        ]
      }
    },
    {
      "type": "Feature",
      "properties": {
        "norad_id": 33775,
        "name": "IRIDIUM 33 DEB",
        "group": "iridium-33-debris",
        "lat": -35.32664768194187,
        "lon": -131.06371421805483,
        "alt_km": 758.6915477288167,
        "timestamp": "2025-12-20T05:41:50.415595+00:00",
        "meta_object_name": "IRIDIUM 33 DEB",
        "meta_object_id": "1997-051N",
        "meta_epoch": "2025-12-19T22:35:30.156000",
        "meta_mean_motion": 14.41482661,
        "meta_eccentricity": 0.00149848,
        "meta_inclination": 86.3629,
        "meta_ra_of_asc_node": 46.4789,
        "meta_arg_of_pericenter": 133.0121,
        "meta_mean_anomaly": 346.7036,
        "meta_ephemeris_type": 0,
        "meta_classification_type": "U",
        "meta_norad_cat_id": 33775,
        "meta_element_set_no": 999,
        "meta_rev_at_epoch": 88244,
        "meta_bstar": 0.00022037788,
        "meta_mean_motion_dot": 7.36e-06,
        "meta_mean_motion_ddot": 0,
        "tle_line1": "1 33775U 97051N   25353.94132125  .00000736  00000+0  22038-3 0  9995",
        "tle_line2": "2 33775  86.3629  46.4789 0014984 133.0121 346.7036 14.41482661882448"
      },
      "geometry": {
        "type": "Point",
        "coordinates": [
          -131.06371421805483,
          -35.32664768194187
        ]
      }
    },
    {
      "type": "Feature",
      "properties": {
        "norad_id": 33776,
        "name": "IRIDIUM 33 DEB",
        "group": "iridium-33-debris",
        "lat": -2.522762024142569,
        "lon": 77.4686482178512,
        "alt_km": 778.2705151325517,
        "timestamp": "2025-12-20T05:41:50.415621+00:00",
        "meta_object_name": "IRIDIUM 33 DEB",
        "meta_object_id": "1997-051P",
        "meta_epoch": "2025-12-19T11:23:30.764832",
        "meta_mean_motion": 14.38246315,
        "meta_eccentricity": 0.0015133,
        "meta_inclination": 86.4035,
        "meta_ra_of_asc_node": 77.9477,
        "meta_arg_of_pericenter": 168.6417,
        "meta_mean_anomaly": 202.3256,
        "meta_ephemeris_type": 0,
        "meta_classification_type": "U",
        "meta_norad_cat_id": 33776,
        "meta_element_set_no": 999,
        "meta_rev_at_epoch": 88179,
        "meta_bstar": 0.00020186,
        "meta_mean_motion_dot": 6.34e-06,
        "meta_mean_motion_ddot": 0,
        "tle_line1": "1 33776U 97051P   25353.47466163  .00000634  00000+0  20186-3 0  9995",
        "tle_line2": "2 33776  86.4035  77.9477 0015133 168.6417 202.3256 14.38246315881791"
      },
      "geometry": {
        "type": "Point",
        "coordinates": [
          77.4686482178512,
          -2.522762024142569
        ]
      }
    },
    {
      "type": "Feature",
      "properties": {
        "norad_id": 33777,
        "name": "IRIDIUM 33 DEB",
        "group": "iridium-33-debris",
        "lat": -73.9485315071557,
        "lon": -135.3391753016327,
        "alt_km": 711.4401530940713,
        "timestamp": "2025-12-20T05:41:50.415641+00:00",
        "meta_object_name": "IRIDIUM 33 DEB",
        "meta_object_id": "1997-051Q",
        "meta_epoch": "2025-12-19T03:47:07.455552",
        "meta_mean_motion": 14.5565724,
        "meta_eccentricity": 0.00056471,
        "meta_inclination": 86.3778,
        "meta_ra_of_asc_node": 32.4117,
        "meta_arg_of_pericenter": 220.5643,
        "meta_mean_anomaly": 139.5144,
        "meta_ephemeris_type": 0,
        "meta_classification_type": "U",
        "meta_norad_cat_id": 33777,
        "meta_element_set_no": 999,
        "meta_rev_at_epoch": 88627,
        "meta_bstar": 0.00061273741,
        "meta_mean_motion_dot": 2.696e-05,
        "meta_mean_motion_ddot": 0,
        "tle_line1": "1 33777U 97051Q   25353.15772518  .00002696  00000+0  61274-3 0  9998",
        "tle_line2": "2 33777  86.3778  32.4117 0005647 220.5643 139.5144 14.55657240886277"
      },
      "geometry": {
        "type": "Point",
        "coordinates": [
          -135.3391753016327,
          -73.9485315071557
        ]
      }
    },
    {
      "type": "Feature",
      "properties": {
        "norad_id": 33850,
        "name": "IRIDIUM 33 DEB",
        "group": "iridium-33-debris",
        "lat": -34.48099933380839,
        "lon": -150.52558860140033,
        "alt_km": 755.4644309869927,
        "timestamp": "2025-12-20T05:41:50.415654+00:00",
        "meta_object_name": "IRIDIUM 33 DEB",
        "meta_object_id": "1997-051T",
        "meta_epoch": "2025-12-19T12:36:52.017120",
        "meta_mean_motion": 14.42160787,
        "meta_eccentricity": 0.001286,
        "meta_inclination": 86.3412,
        "meta_ra_of_asc_node": 27.2617,
        "meta_arg_of_pericenter": 140.6772,
        "meta_mean_anomaly": 340.5456,
        "meta_ephemeris_type": 0,
        "meta_classification_type": "U",
        "meta_norad_cat_id": 33850,
        "meta_element_set_no": 999,
        "meta_rev_at_epoch": 88250,
        "meta_bstar": 0.00026229,
        "meta_mean_motion_dot": 8.83e-06,
        "meta_mean_motion_ddot": 0,
        "tle_line1": "1 33850U 97051T   25353.52560205  .00000883  00000+0  26229-3 0  9996",
        "tle_line2": "2 33850  86.3412  27.2617 0012860 140.6772 340.5456 14.42160787882504"
      },
      "geometry": {
        "type": "Point",
        "coordinates": [
          -150.52558860140033,
          -34.48099933380839
        ]
      }
    },
    {
      "type": "Feature",
      "properties": {
        "norad_id": 33853,
        "name": "IRIDIUM 33 DEB",
        "group": "iridium-33-debris",
        "lat": 25.264771214320874,
        "lon": 164.6307024897983,
        "alt_km": 814.2879708688642,
        "timestamp": "2025-12-20T05:41:50.415667+00:00",
        "meta_object_name": "IRIDIUM 33 DEB",
        "meta_object_id": "1997-051W",
        "meta_epoch": "2025-12-19T17:47:37.724640",
        "meta_mean_motion": 13.99098623,
        "meta_eccentricity": 0.02072108,
        "meta_inclination": 85.9997,
        "meta_ra_of_asc_node": 346.7406,
        "meta_arg_of_pericenter": 214.1992,
        "meta_mean_anomaly": 325.7563,
        "meta_ephemeris_type": 0,
        "meta_classification_type": "U",
        "meta_norad_cat_id": 33853,
        "meta_element_set_no": 999,
        "meta_rev_at_epoch": 85443,
        "meta_bstar": 0.0011335371,
        "meta_mean_motion_dot": 1.989e-05,
        "meta_mean_motion_ddot": 0,
        "tle_line1": "1 33853U 97051W   25353.74140885  .00001989  00000+0  11335-2 0  9990",
        "tle_line2": "2 33853  85.9997 346.7406 0207210 214.1992 325.7563 13.99098623854436"
      },
      "geometry": {
        "type": "Point",
        "coordinates": [
          164.6307024897983,
          25.264771214320874
        ]
      }
    }
  ]
}